{
  "type": "FeatureCollection",
  "features": [
    {
      "type": "Feature",
      "properties": {
        "norad_id": 46450,
        "name": "FENGYUN 1C DEB",
        "group": "fengyun-1c-debris",
        "lat": -34.10479300761193,
        "lon": 19.690898193586655,
        "alt_km": 1011.2261115762667,
        "timestamp": "2025-12-14T18:52:55.793975+00:00",
        "meta_object_name": "FENGYUN 1C DEB",
        "meta_object_id": "1999-025EZF",
        "meta_epoch": "2025-12-13T07:39:30.370464",
        "meta_mean_motion": 14.03577892,
        "meta_eccentricity": 0.01825974,
        "meta_inclination": 98.0791,
        "meta_ra_of_asc_node": 203.905,
        "meta_arg_of_pericenter": 59.283,
        "meta_mean_anomaly": 302.6187,
        "meta_ephemeris_type": 0,
        "meta_classification_type": "U",
        "meta_norad_cat_id": 46450,
        "meta_element_set_no": 999,
        "meta_rev_at_epoch": 61127,
        "meta_bstar": 0.0033356689,
        "meta_mean_motion_dot": 6.035e-05,
        "meta_mean_motion_ddot": 0,
        "tle_line1": "1 46450U 99025EZF 25347.31910151  .00006035  00000+0  33357-2 0  9992",
        "tle_line2": "2 46450  98.0791 203.9050 0182597  59.2830 302.6187 14.03577892611273"
      },
      "geometry": {
        "type": "Point",
        "coordinates": [
          19.690898193586655,
          -34.10479300761193
        ]
      }
    },
    {
      "type": "Feature",
      "properties": {
        "norad_id": 46451,
        "name": "FENGYUN 1C DEB",
        "group": "fengyun-1c-debris",
        "lat": -50.38895545703698,
        "lon": 17.809859539214663,
        "alt_km": 907.1966256320311,
        "timestamp": "2025-12-14T18:52:55.793985+00:00",
        "meta_object_name": "FENGYUN 1C DEB",
        "meta_object_id": "1999-025EZG",
        "meta_epoch": "2025-12-11T06:53:30.054624",
        "meta_mean_motion": 14.20357181,
        "meta_eccentricity": 0.01713544,
        "meta_inclination": 98.1526,
        "meta_ra_of_asc_node": 4.6063,
        "meta_arg_of_pericenter": 190.1419,
        "meta_mean_anomaly": 232.5162,
        "meta_ephemeris_type": 0,
        "meta_classification_type": "U",
        "meta_norad_cat_id": 46451,
        "meta_element_set_no": 999,
        "meta_rev_at_epoch": 56986,
        "meta_bstar": 0.0051476823,
        "meta_mean_motion_dot": 0.00012758,
        "meta_mean_motion_ddot": 0,
        "tle_line1": "1 46451U 99025EZG 25345.28715341  .00012758  00000+0  51477-2 0  9993",
        "tle_line2": "2 46451  98.1526   4.6063 0171354 190.1419 232.5162 14.20357181569865"
      },
      "geometry": {
        "type": "Point",
        "coordinates": [
          17.809859539214663,
          -50.38895545703698
        ]
      }
    },
    {
      "type": "Feature",
      "properties": {
        "norad_id": 46468,
        "name": "FENGYUN 1C DEB",
        "group": "fengyun-1c-debris",
        "lat": -37.981523647791995,
        "lon": -110.42554133115127,
        "alt_km": 782.7564132713742,
        "timestamp": "2025-12-14T18:52:55.793996+00:00",
        "meta_object_name": "FENGYUN 1C DEB",
        "meta_object_id": "1999-025EZK",
        "meta_epoch": "2025-12-13T04:55:06.657888",
        "meta_mean_motion": 14.24733341,
        "meta_eccentricity": 0.00460719,
        "meta_inclination": 98.8823,
        "meta_ra_of_asc_node": 74.9879,
        "meta_arg_of_pericenter": 229.1827,
        "meta_mean_anomaly": 160.5992,
        "meta_ephemeris_type": 0,
        "meta_classification_type": "U",
        "meta_norad_cat_id": 46468,
        "meta_element_set_no": 999,
        "meta_rev_at_epoch": 73823,
        "meta_bstar": 0.0028688303,
        "meta_mean_motion_dot": 6.714e-05,
        "meta_mean_motion_ddot": 0,
        "tle_line1": "1 46468U 99025EZK 25347.20493817  .00006714  00000+0  28688-2 0  9999",
        "tle_line2": "2 46468  98.8823  74.9879 0046071 229.1827 160.5992 14.24733341738238"
      },
      "geometry": {
        "type": "Point",
        "coordinates": [
          -110.42554133115127,
          -37.981523647791995
        ]
      }
    },
    {
      "type": "Feature",
      "properties": {
        "norad_id": 46986,
        "name": "FENGYUN 1C DEB",
        "group": "fengyun-1c-debris",
        "lat": -21.5681661122843,
        "lon": -170.7986143317726,
        "alt_km": 665.9984629184428,
        "timestamp": "2025-12-14T18:52:55.794005+00:00",
        "meta_object_name": "FENGYUN 1C DEB",
        "meta_object_id": "1999-025EZL",
        "meta_epoch": "2025-12-12T19:29:15.686304",
        "meta_mean_motion": 14.47182887,
        "meta_eccentricity": 0.0104455,
        "meta_inclination": 98.2383,
        "meta_ra_of_asc_node": 10.5621,
        "meta_arg_of_pericenter": 211.7173,
        "meta_mean_anomaly": 147.77,
        "meta_ephemeris_type": 0,
        "meta_classification_type": "U",
        "meta_norad_cat_id": 46986,
        "meta_element_set_no": 999,
        "meta_rev_at_epoch": 63401,
        "meta_bstar": 0.00074818635,
        "meta_mean_motion_dot": 2.878e-05,
        "meta_mean_motion_ddot": 0,
        "tle_line1": "1 46986U 99025EZL 25346.81198711  .00002878  00000+0  74819-3 0  9990",
        "tle_line2": "2 46986  98.2383  10.5621 0104455 211.7173 147.7700 14.47182887634014"
      },
      "geometry": {
        "type": "Point",
        "coordinates": [
          -170.7986143317726,
          -21.5681661122843
        ]
      }
    },
    {
      "type": "Feature",
      "properties": {
        "norad_id": 46989,
        "name": "FENGYUN 1C DEB",
        "group": "fengyun-1c-debris",
        "lat": 28.308957669911283,
        "lon": -24.249961999129308,
        "alt_km": 1141.0287836456237,
        "timestamp": "2025-12-14T18:52:55.794015+00:00",
        "meta_object_name": "FENGYUN 1C DEB",
        "meta_object_id": "1999-025EZP",
        "meta_epoch": "2025-12-11T10:11:56.668416",
        "meta_mean_motion": 13.79296249,
        "meta_eccentricity": 0.02400096,
        "meta_inclination": 99.5086,
        "meta_ra_of_asc_node": 147.1941,
        "meta_arg_of_pericenter": 340.6799,
        "meta_mean_anomaly": 46.0855,
        "meta_ephemeris_type": 0,
        "meta_classification_type": "U",
        "meta_norad_cat_id": 46989,
        "meta_element_set_no": 999,
        "meta_rev_at_epoch": 71024,
        "meta_bstar": 0.0061779506,
        "meta_mean_motion_dot": 7.825e-05,
        "meta_mean_motion_ddot": 0,
        "tle_line1": "1 46989U 99025EZP 25345.42496144  .00007825  00000+0  61780-2 0  9999",
        "tle_line2": "2 46989  99.5086 147.1941 0240009 340.6799  46.0855 13.79296249710249"
      },
      "geometry": {
        "type": "Point",
        "coordinates": [
          -24.249961999129308,
          28.308957669911283
        ]
      }
    },
    {
      "type": "Feature",
      "properties": {
        "norad_id": 46990,
        "name": "FENGYUN 1C DEB",
        "group": "fengyun-1c-debris",
        "lat": -63.56951136351935,
        "lon": -4.151215944618412,
        "alt_km": 1072.5338075179898,
        "timestamp": "2025-12-14T18:52:55.794026+00:00",
        "meta_object_name": "FENGYUN 1C DEB",
        "meta_object_id": "1999-025EZQ",
        "meta_epoch": "2025-12-13T19:53:56.037120",
        "meta_mean_motion": 14.23857179,
        "meta_eccentricity": 0.03582065,
        "meta_inclination": 98.2321,
        "meta_ra_of_asc_node": 191.8821,
        "meta_arg_of_pericenter": 57.2091,
        "meta_mean_anomaly": 322.3447,
        "meta_ephemeris_type": 0,
        "meta_classification_type": "U",
        "meta_norad_cat_id": 46990,
        "meta_element_set_no": 999,
        "meta_rev_at_epoch": 8545,
        "meta_bstar": 0.0024070801,
        "meta_mean_motion_dot": 0.00010727,
        "meta_mean_motion_ddot": 0,
        "tle_line1": "1 46990U 99025EZQ 25347.82912080  .00010727  00000+0  24071-2 0  9996",
        "tle_line2": "2 46990  98.2321 191.8821 0358206  57.2091 322.3447 14.23857179 85457"
      },
      "geometry": {
        "type": "Point",
        "coordinates": [
          -4.151215944618412,
          -63.56951136351935
        ]
      }
    },
    {
      "type": "Feature",
      "properties": {
        "norad_id": 46992,
        "name": "FENGYUN 1C DEB",
        "group": "fengyun-1c-debris",
        "lat": 39.448437846151485,
        "lon": 162.89646078759836,
        "alt_km": 837.5699971661743,
        "timestamp": "2025-12-14T18:52:55.794036+00:00",
        "meta_object_name": "FENGYUN 1C DEB",
        "meta_object_id": "1999-025EZS",
        "meta_epoch": "2025-12-13T18:12:56.949408",
        "meta_mean_motion": 14.00699481,
        "meta_eccentricity": 0.00721834,
        "meta_inclination": 98.8985,
        "meta_ra_of_asc_node": 334.4891,
        "meta_arg_of_pericenter": 157.8001,
        "meta_mean_anomaly": 202.6317,
        "meta_ephemeris_type": 0,
        "meta_classification_type": "U",
        "meta_norad_cat_id": 46992,
        "meta_element_set_no": 999,
        "meta_rev_at_epoch": 60971,
        "meta_bstar": 0.00055491814,
        "meta_mean_motion_dot": 8.03e-06,
        "meta_mean_motion_ddot": 0,
        "tle_line1": "1 46992U 99025EZS 25347.75899247  .00000803  00000+0  55492-3 0  9995",
        "tle_line2": "2 46992  98.8985 334.4891 0072183 157.8001 202.6317 14.00699481609710"
      },
      "geometry": {
        "type": "Point",
        "coordinates": [
          162.89646078759836,
          39.448437846151485
        ]
      }
    }
  ]
}